#dP2022 11 20  6  0  0.00000000      96 __u+U ITR00 EXT  IAC
## 2237  21600.00000000   900.00000000 59903 0.2500000000000
+  118   C06C07C08C09C10C11C12C13C14C16C19C20C21C22C23C24C25
+        C26C27C28C29C30C32C33C34C35C36C37C38C39C40C41C42C43
+        C44C45C46E01E02E03E04E05E07E08E09E10E11E12E13E14E15
+        E18E19E21E24E25E26E27E30E31E33E34E36G01G02G03G04G05
+        G06G07G08G09G10G11G12G13G14G15G16G17G18G19G20G21G22
+        G23G24G25G26G27G29G30G31G32J02J03J04R01R02R03R04R05
+        R07R08R09R11R12R13R14R15R17R18R19R20R21R22R24R25  0
++         9  8  8  9 10  8  7 10  8  8  9  8  9  9  7  9  9
++         7  9  8  8  8  8  9  8  8  8  9  9 10 10 10  7 10
++         8  8 10  8  7  8  8  8  7  8  8  7  7  8  8  8  7
++         8  8  8  7  7  7  7  7  7  8  8  8  7  8  7  8  7
++         7  8  7  7  7  7  8  7  8  7  7  8  7  8  7  8  7
++         7  7  7  8  7  9  7  7  8  9  8  9  9  7  7  9  9
++         7  8 10  8 10  9  8  9  8  9  8  9  8  7  8  8  0
%c M  cc GPS ccc cccc cccc cccc cccc ccccc ccccc ccccc ccccc
%c cc cc ccc ccc cccc cccc cccc cccc ccccc ccccc ccccc ccccc
%f  0.0000000  0.000000000  0.00000000000  0.000000000000000
%f  0.0000000  0.000000000  0.00000000000  0.000000000000000
%i    0    0    0    0      0      0      0      0         0
%i    0    0    0    0      0      0      0      0         0
/* IAC                                ULTRA-RAPID PREDICTION
/* S/V CLOCKS ARE ALIGNED TO GNSS TIME                      
/* G:C1WC2W R:C1PC2P E:C1XC5X C:C2IC6I J:C1CC2S             
/* PCV:IGS14_2233 OL/AL:FES2004  NONE     YN ORB:CoN CLK:CoN
*  2022 11 20 18 15  0.00000000
PC06  -5066.665944  24386.236360 -34011.997807     -3.407705
PC07 -16870.171790  35496.784528  15133.346080    186.814250
PC08  -2788.256901  38376.542814  17473.550185    514.321794
PC09   4198.240936  26728.279023 -31823.356601   -802.283277
PC10  -9384.696101  35205.439210  21115.338208     65.075505
PC11  -6659.269657 -16424.438424 -21472.489125   -281.181507
PC12  13509.614712 -11291.661331 -21609.853533    310.145480
PC13   2818.579066  41141.278691   9629.544980    138.272713
PC14   2360.592510 -20977.827544  18286.355974    669.986134
PC16 -10783.651715  21602.922348 -34400.309214    114.094763
PC19   6678.225208  15265.015457 -22366.944086   -911.914576
PC20  -9531.130845  22932.358928 -12703.359001    831.429607
PC21  21236.015575 -17302.533457  -5362.111687   -864.332614
PC22  19835.260000  -1559.905783 -19582.675433   -783.063753
PC23 -17496.936993  -9955.542768 -19319.469847   -876.058672
PC24   1926.450831 -24858.515985  12488.244724   -780.805783
PC25 -12422.734666 -24255.740054  -5955.455899     27.594544
PC26  12590.013851 -11928.178798  21840.785198    -38.670791
PC27 -21235.422852   6740.938954  16794.456644     54.331592
PC28 -27291.787493  -5565.857258   1670.457464     38.221616
PC29  17640.976858  14832.504171  15731.936124     43.139907
PC30  -3285.542965  15603.625166  22898.551638      1.028128
PC32 -21131.998028  17383.733199   5478.362047   -710.951127
PC33  -6683.606795 -15341.618609  22329.809806   -908.012303
PC34   1911.016917 -15919.208018 -22847.513395     43.633216
PC35  27315.507789   5629.606935   -125.686198     97.152372
PC36  11525.371617  24852.321315   5374.799463   -826.377001
PC37 -13485.001846  10304.290177 -22145.730188   -903.530895
PC38  -7999.995186  34504.814805  23044.107925     39.501964
PC39 -14777.866564  20245.764608 -33926.012234     -0.890744
PC40 -24903.665511  31125.664152  13439.417572     -8.500226
PC41 -19598.634958   1020.544458  19885.392917   -296.341194
PC42  10471.629145 -23091.054323  11709.244344   -700.571592
PC43 -16894.873025 -15193.187174 -16218.291919     26.015001
PC44  21116.744751  -7510.675366 -16615.879253    120.066711
PC45  17414.900550   9627.611089  19574.815311    -24.829670
PC46   -539.029864  25650.511776 -11035.534470    -14.291670
PE01   3158.736864  25999.833406  13807.318295   -569.266153
PE02  -3335.275547 -25851.448781 -14004.412182      3.783897
PE03  -8457.883730 -15140.116203  23976.309283   -621.921807
PE04  25270.294350   3655.456261 -14973.426930  -1162.781064
PE05  13715.198672 -17986.560446  19086.481906   -122.751080
PE07 -27556.627064  10325.102263  -3174.001405     -0.843762
PE08 -25246.915855  -3507.781327  15034.901507   -635.575211
PE09  27617.826450 -10241.789466   2969.498134   -736.059544
PE10  23239.447394   6975.413440 -16965.104372   -492.200184
PE11  18421.161464  -2995.986702 -22978.513042   1236.165010
PE12  23951.005791  14986.128315  -8811.491127   -287.548747
PE13 -18924.504525   2135.305991  22667.183043    430.561802
PE14  29787.915488  -7988.873910  -4324.481299     62.194737
PE15 -23940.547765 -15153.216772   8572.401219    706.160597
PE18 -25025.497013   -210.390995  -4094.661138   -720.446475
PE19   5416.637845  16037.378513 -24284.263428  -3946.310009
PE21  -9141.034057  27989.527613  -3086.007458   -495.769403
PE24  17453.066612 -13093.387457  19980.153815   -958.165318
PE25   9333.789977 -27878.099500   3399.588153   -593.130260
PE26  -2188.773017  18616.683092  22919.311699  -1867.762453
PE27 -17223.729286  14179.305861 -19457.307421   -444.266097
PE30 -14827.163245  -8748.741827 -24082.194613  -1014.245710
PE31  15091.241452   7870.355198  24228.110550   -508.666857
PE33  14782.506423  23395.463346  10510.843992   -455.555897
PE34 -14952.322349 -23347.991665 -10345.602017    -15.599328
PE36   2871.810417 -17987.486202 -23324.786021   -463.720639
PG01 -20580.859244 -11984.192038  11800.701429    248.937041
PG02  21230.719883   7811.915996 -13121.208156   -636.947372
PG03 -14243.007223  -4109.472395  21914.582647   -373.636125
PG04 -25203.324484  -1634.229043   8393.474858    -82.984488
PG05   8482.112338  17207.211478 -18489.445575   -105.047686
PG06    530.469443  19080.730274  18499.762966    522.827875
PG07 -16857.271227   2551.361614 -20061.363649    284.985850
PG08 -18890.722768  -7918.907178 -17147.371411    -94.753165
PG09 -25324.508065   7682.906996  -2615.649362   -265.748825
PG10  11325.368510 -23229.898357  -5192.758301    -12.719831
PG11  10328.196684  22814.702253   8910.570530    -42.899195
PG12  13755.333331   5836.767407  21689.754190   -306.561927
PG13  11155.516655  13266.829455 -20352.036380    428.081533
PG14 -13453.276881  21687.854371  -7129.283680    -80.296956
PG15  19834.177225   6476.223262 -17039.651137    -10.776396
PG16  -2943.346703 -20975.662122 -16012.864654   -526.850383
PG17 -17939.226298  12935.912038  15204.297447    679.566321
PG18  15075.711641  -4757.162996 -21365.835333    -29.228943
PG19  -6957.766532  14748.197643  20676.267310    239.969738
PG20   1692.310618  25440.808817  -7828.985105    468.771980
PG21 -21302.000145 -16130.091162   4299.643163    155.632377
PG22   3410.675772 -15610.094273  21616.203697    368.547503
PG23  15328.635242 -15665.184826 -14908.538792     -0.890997
PG24  21878.782399  13503.198214   7147.921059     50.697525
PG25  16482.393339  -6356.580694  19449.406502    394.507364
PG26   2821.188174 -25727.008349  -5208.601673    236.354007
PG27  -7466.306663 -13685.527009 -21768.162572    173.422903
PG29  26281.692218  -4027.694853   -957.041692   -568.570714
PG30  -8080.531247  14135.298472 -20857.789309   -536.503397
PG31  -1091.202877 -19965.711787  17088.846068   -200.806586
PG32  14448.132070 -14989.029642  16528.160695   -302.730996
PJ02 -22996.991836  31941.526913 -10350.078495     -0.163959
PJ03 -27399.281768  22535.265146  27934.552038     -5.020356
PJ04 -32718.392374  26656.521203   7543.121657    113.374321
PR01 -18270.301461  17112.661751  -4894.043847     18.213410
PR02  -4528.694488  14959.474911 -20145.647377    -23.350241
PR03  11650.555176   4479.466207 -22196.960398     67.643957
PR04  20933.323989  -8315.172915 -11932.442364    165.641139
PR05  18865.519613 -16435.129327   4886.068843    103.248809
PR07 -12354.501221  -3865.118372  22021.225757     44.663517
PR08 -20994.500232   8431.464133  11867.347022    -68.175574
PR09  -3376.705731 -25323.928766    118.092756     88.664908
PR11 -11019.015984   -362.928742 -22993.058381     19.616778
PR12  -5718.231182  18645.786157 -16428.658835     23.034018
PR13   2416.839318  25337.403040  -1745.787351    -29.099679
PR14   9924.478352  17179.203768  16035.304000     24.103017
PR15  11029.779009   -716.002271  23007.379995     92.768395
PR17  21313.522785  12600.198882   6245.301004    579.876406
PR18  22651.442006   5162.921180 -10460.517325     52.963566
PR19  13538.802107  -3881.352891 -21263.970615   -211.681754
PR20  -6743.865769 -13485.442664 -20571.816724    -82.513489
PR21 -21906.582007 -12192.731017  -4605.577276   -351.243216
PR22 -22336.760978  -5363.099769  11130.249455     16.360593
PR24   7582.207513  13800.375388  20097.395845    127.728164
PR25 -20397.441650 -13795.441673  -6600.471164     46.834249
EOF
